{"type": "FeatureCollection", "features": [ {"type": "Feature", "properties": {"norad_id": 40115, "name": "WORLDVIEW-3 (WV-3)", "group": "resource", "lat": 40.912469967076156, "lon": -123.81950170565293, "alt_km": 608.5017001013621, "timestamp": "2025-12-02T21:34:00.930250+00:00", "meta": {"OBJECT_NAME": "WORLDVIEW-3 (WV-3)", "OBJECT_ID": "2014-048A", "EPOCH": "2025-12-02T11:14:42.695808", "MEAN_MOTION": 14.85469209, "ECCENTRICITY": 0.0004043, "INCLINATION": 97.8627, "RA_OF_ASC_NODE": 48.8777, "ARG_OF_PERICENTER": 222.0493, "MEAN_ANOMALY": 138.0412, "EPHEMERIS_TYPE": 0, "CLASSIFICATION_TYPE": "U", "NORAD_CAT_ID": 40115, "ELEMENT_SET_NO": 999, "REV_AT_EPOCH": 61271, "BSTAR": 0.00019874, "MEAN_MOTION_DOT": 1.661e-05, "MEAN_MOTION_DDOT": 0}, "tle": {"line1": "1 40115U 14048A   25336.46854972  .00001661  00000+0  19874-3 0  9997", "line2": "2 40115  97.8627  48.8777 0004043 222.0493 138.0412 14.85469209612710"}}, "geometry": {"type": "Point", "coordinates": [-123.81950170565293, 40.912469967076156]}}, {"type": "Feature", "properties": {"norad_id": 40118, "name": "GAOFEN-2", "group": "resource", "lat": 50.182188475484736, "lon": -134.18935125185985, "alt_km": 617.3207608142884, "timestamp": "2025-12-02T21:34:00.930260+00:00", "meta": {"OBJECT_NAME": "GAOFEN-2", "OBJECT_ID": "2014-049A", "EPOCH": "2025-12-02T12:52:34.711968", "MEAN_MOTION": 14.80579045, "ECCENTRICITY": 0.0008165, "INCLINATION": 98.0399, "RA_OF_ASC_NODE": 35.6867, "ARG_OF_PERICENTER": 142.3427, "MEAN_ANOMALY": 217.8358, "EPHEMERIS_TYPE": 0, "CLASSIFICATION_TYPE": "U", "NORAD_CAT_ID": 40118, "ELEMENT_SET_NO": 999, "REV_AT_EPOCH": 61013, "BSTAR": 0.00014633, "MEAN_MOTION_DOT": 1.069e-05, "MEAN_MOTION_DDOT": 0}, "tle": {"line1": "1 40118U 14049A   25336.53651287  .00001069  00000+0  14633-3 0  9993", "line2": "2 40118  98.0399  35.6867 0008165 142.3427 217.8358 14.80579045610130"}}, "geometry": {"type": "Point", "coordinates": [-134.18935125185985, 50.182188475484736]}}, {"type": "Feature", "properties": {"norad_id": 40143, "name": "YAOGAN-21", "group": "resource", "lat": 12.098706943432244, "lon": 19.09239295308378, "alt_km": 493.12415451290053, "timestamp": "2025-12-02T21:34:00.930271+00:00", "meta": {"OBJECT_NAME": "YAOGAN-21", "OBJECT_ID": "2014-053A", "EPOCH": "2025-12-02T13:37:54.378336", "MEAN_MOTION": 15.23468865, "ECCENTRICITY": 0.0010297, "INCLINATION": 97.1778, "RA_OF_ASC_NODE": 20.3241, "ARG_OF_PERICENTER": 72.6159, "MEAN_ANOMALY": 287.6204, "EPHEMERIS_TYPE": 0, "CLASSIFICATION_TYPE": "U", "NORAD_CAT_ID": 40143, "ELEMENT_SET_NO": 999, "REV_AT_EPOCH": 62499, "BSTAR": 0.00038818, "MEAN_MOTION_DOT": 9.205e-05, "MEAN_MOTION_DDOT": 0}, "tle": {"line1": "1 40143U 14053A   25336.56799049  .00009205  00000+0  38818-3 0  9999", "line2": "2 40143  97.1778  20.3241 0010297  72.6159 287.6204 15.23468865624991"}}, "geometry": {"type": "Point", "coordinates": [19.09239295308378, 12.098706943432244]}}, {"type": "Feature", "properties": {"norad_id": 40275, "name": "YAOGAN-22", "group": "resource", "lat": 5.873369603836276, "lon": 119.06031303893944, "alt_km": 1204.0853053003311, "timestamp": "2025-12-02T21:34:00.930281+00:00", "meta": {"OBJECT_NAME": "YAOGAN-22", "OBJECT_ID": "2014-063A", "EPOCH": "2025-12-02T08:45:35.847072", "MEAN_MOTION": 13.15522181, "ECCENTRICITY": 0.000587, "INCLINATION": 100.7417, "RA_OF_ASC_NODE": 119.6383, "ARG_OF_PERICENTER": 273.2794, "MEAN_ANOMALY": 86.7645, "EPHEMERIS_TYPE": 0, "CLASSIFICATION_TYPE": "U", "NORAD_CAT_ID": 40275, "ELEMENT_SET_NO": 999, "REV_AT_EPOCH": 53393, "BSTAR": 0.00016337, "MEAN_MOTION_DOT": 1.5e-07, "MEAN_MOTION_DDOT": 0}, "tle": {"line1": "1 40275U 14063A   25336.36499823  .00000015  00000+0  16337-3 0  9993", "line2": "2 40275 100.7417 119.6383 0005870 273.2794  86.7645 13.15522181533933"}}, "geometry": {"type": "Point", "coordinates": [119.06031303893944, 5.873369603836276]}}, {"type": "Feature", "properties": {"norad_id": 40298, "name": "ASNARO", "group": "resource", "lat": -30.654298451199175, "lon": -131.30969072567044, "alt_km": 511.7574729715552, "timestamp": "2025-12-02T21:34:00.930291+00:00", "meta": {"OBJECT_NAME": "ASNARO", "OBJECT_ID": "2014-070A", "EPOCH": "2025-12-02T11:09:42.509376", "MEAN_MOTION": 15.19809187, "ECCENTRICITY": 0.0007055, "INCLINATION": 97.3671, "RA_OF_ASC_NODE": 52.665, "ARG_OF_PERICENTER": 130.5918, "MEAN_ANOMALY": 229.5932, "EPHEMERIS_TYPE": 0, "CLASSIFICATION_TYPE": "U", "NORAD_CAT_ID": 40298, "ELEMENT_SET_NO": 999, "REV_AT_EPOCH": 61413, "BSTAR": 0.00061205, "MEAN_MOTION_DOT": 0.00013064, "MEAN_MOTION_DDOT": 0}, "tle": {"line1": "1 40298U 14070A   25336.46507534  .00013064  00000+0  61205-3 0  9998", "line2": "2 40298  97.3671  52.6650 0007055 130.5918 229.5932 15.19809187614132"}}, "geometry": {"type": "Point", "coordinates": [-131.30969072567044, -30.654298451199175]}}, {"type": "Feature", "properties": {"norad_id": 40310, "name": "YAOGAN-24", "group": "resource", "lat": -81.86933035799552, "lon": -160.34510680901212, "alt_km": 650.8057724736027, "timestamp": "2025-12-02T21:34:00.930301+00:00", "meta": {"OBJECT_NAME": "YAOGAN-24", "OBJECT_ID": "2014-072A", "EPOCH": "2025-12-02T12:12:54.303840", "MEAN_MOTION": 14.76141226, "ECCENTRICITY": 0.0014197, "INCLINATION": 98.1217, "RA_OF_ASC_NODE": 107.5483, "ARG_OF_PERICENTER": 169.7691, "MEAN_ANOMALY": 190.381, "EPHEMERIS_TYPE": 0, "CLASSIFICATION_TYPE": "U", "NORAD_CAT_ID": 40310, "ELEMENT_SET_NO": 999, "REV_AT_EPOCH": 59470, "BSTAR": 0.0002078, "MEAN_MOTION_DOT": 1.385e-05, "MEAN_MOTION_DDOT": 0}, "tle": {"line1": "1 40310U 14072A   25336.50896185  .00001385  00000+0  20780-3 0  9999", "line2": "2 40310  98.1217 107.5483 0014197 169.7691 190.3810 14.76141226594708"}}, "geometry": {"type": "Point", "coordinates": [-160.34510680901212, -81.86933035799552]}}, {"type": "Feature", "properties": {"norad_id": 40336, "name": "CBERS 4", "group": "resource", "lat": 7.672347362594362, "lon": 34.12032375849396, "alt_km": 775.6976508393827, "timestamp": "2025-12-02T21:34:00.930311+00:00", "meta": {"OBJECT_NAME": "CBERS 4", "OBJECT_ID": "2014-079A", "EPOCH": "2025-12-02T11:29:38.190336", "MEAN_MOTION": 14.35527585, "ECCENTRICITY": 0.0001431, "INCLINATION": 98.3323, "RA_OF_ASC_NODE": 34.8462, "ARG_OF_PERICENTER": 127.7792, "MEAN_ANOMALY": 232.3524, "EPHEMERIS_TYPE": 0, "CLASSIFICATION_TYPE": "U", "NORAD_CAT_ID": 40336, "ELEMENT_SET_NO": 999, "REV_AT_EPOCH": 57573, "BSTAR": 9.2908e-05, "MEAN_MOTION_DOT": 2.25e-06, "MEAN_MOTION_DDOT": 0}, "tle": {"line1": "1 40336U 14079A   25336.47891424  .00000225  00000+0  92908-4 0  9995", "line2": "2 40336  98.3323  34.8462 0001431 127.7792 232.3524 14.35527585575730"}}, "geometry": {"type": "Point", "coordinates": [34.12032375849396, 7.672347362594362]}}, {"type": "Feature", "properties": {"norad_id": 40362, "name": "YAOGAN-26", "group": "resource", "lat": -78.36642529266521, "lon": 120.89083048273135, "alt_km": 461.72561538918126, "timestamp": "2025-12-02T21:34:00.930322+00:00", "meta": {"OBJECT_NAME": "YAOGAN-26", "OBJECT_ID": "2014-088A", "EPOCH": "2025-12-02T12:38:01.307328", "MEAN_MOTION": 15.38744484, "ECCENTRICITY": 0.0007396, "INCLINATION": 97.0641, "RA_OF_ASC_NODE": 337.569, "ARG_OF_PERICENTER": 57.2991, "MEAN_ANOMALY": 302.8967, "EPHEMERIS_TYPE": 0, "CLASSIFICATION_TYPE": "U", "NORAD_CAT_ID": 40362, "ELEMENT_SET_NO": 999, "REV_AT_EPOCH": 60737, "BSTAR": 0.00057344, "MEAN_MOTION_DOT": 0.00021935, "MEAN_MOTION_DDOT": 0}, "tle": {"line1": "1 40362U 14088A   25336.52640402  .00021935  00000+0  57344-3 0  9993", "line2": "2 40362  97.0641 337.5690 0007396  57.2991 302.8967 15.38744484607371"}}, "geometry": {"type": "Point", "coordinates": [120.89083048273135, -78.36642529266521]}}, {"type": "Feature", "properties": {"norad_id": 40376, "name": "SMAP", "group": "resource", "lat": -52.656607803351896, "lon": -7.438708310772217, "alt_km": 690.0638910026983, "timestamp": "2025-12-02T21:34:00.930332+00:00", "meta": {"OBJECT_NAME": "SMAP", "OBJECT_ID": "2015-003A", "EPOCH": "2025-12-02T11:57:51.150816", "MEAN_MOTION": 14.6332379, "ECCENTRICITY": 0.0001203, "INCLINATION": 98.129, "RA_OF_ASC_NODE": 341.3699, "ARG_OF_PERICENTER": 85.7767, "MEAN_ANOMALY": 274.3572, "EPHEMERIS_TYPE": 0, "CLASSIFICATION_TYPE": "U", "NORAD_CAT_ID": 40376, "ELEMENT_SET_NO": 999, "REV_AT_EPOCH": 57885, "BSTAR": 0.00016156, "MEAN_MOTION_DOT": 7.87e-06, "MEAN_MOTION_DDOT": 0}, "tle": {"line1": "1 40376U 15003A   25336.49850869  .00000787  00000+0  16156-3 0  9990", "line2": "2 40376  98.1290 341.3699 0001203  85.7767 274.3572 14.63323790578853"}}, "geometry": {"type": "Point", "coordinates": [-7.438708310772217, -52.656607803351896]}}, {"type": "Feature", "properties": {"norad_id": 40536, "name": "KOMPSAT-3A", "group": "resource", "lat": 36.09322890244508, "lon": -54.936900803145534, "alt_km": 434.57196165119785, "timestamp": "2025-12-02T21:34:00.930342+00:00", "meta": {"OBJECT_NAME": "KOMPSAT-3A", "OBJECT_ID": "2015-014A", "EPOCH": "2025-12-02T12:04:23.381760", "MEAN_MOTION": 15.43377927, "ECCENTRICITY": 0.0003651, "INCLINATION": 97.6771, "RA_OF_ASC_NODE": 310.2898, "ARG_OF_PERICENTER": 148.8706, "MEAN_ANOMALY": 211.2757, "EPHEMERIS_TYPE": 0, "CLASSIFICATION_TYPE": "U", "NORAD_CAT_ID": 40536, "ELEMENT_SET_NO": 999, "REV_AT_EPOCH": 59137, "BSTAR": 0.00051281, "MEAN_MOTION_DOT": 0.00022838, "MEAN_MOTION_DDOT": 0}, "tle": {"line1": "1 40536U 15014A   25336.50304840  .00022838  00000+0  51281-3 0  9994", "line2": "2 40536  97.6771 310.2898 0003651 148.8706 211.2757 15.43377927591375"}}, "geometry": {"type": "Point", "coordinates": [-54.936900803145534, 36.09322890244508]}}]}